CCSDS_OMM_VERS = 2.0
CREATION_DATE  = 
ORIGINATOR     = 

OBJECT_NAME    = COSMOS 2058
OBJECT_ID      = 1990-010A
CENTER_NAME    = EARTH
REF_FRAME      = TEME
TIME_SYSTEM    = UTC
MEAN_ELEMENT_THEORY = SGP/SGP4

EPOCH          = 2026-03-28T13:59:22.756992
MEAN_MOTION    = 15.11489763
ECCENTRICITY   = .00074581
INCLINATION    = 82.4688
RA_OF_ASC_NODE = 28.8103
ARG_OF_PERICENTER = 268.6324
MEAN_ANOMALY   = 91.4051

EPHEMERIS_TYPE = 0
CLASSIFICATION_TYPE = U
NORAD_CAT_ID   = 20465
ELEMENT_SET_NO = 999
REV_AT_EPOCH   = 94509
BSTAR          = .3149639E-3
MEAN_MOTION_DOT = .5361E-4
MEAN_MOTION_DDOT = 0

CCSDS_OMM_VERS = 2.0
CREATION_DATE  = 
ORIGINATOR     = 

OBJECT_NAME    = SL-14 R/B
OBJECT_ID      = 1990-010B
CENTER_NAME    = EARTH
REF_FRAME      = TEME
TIME_SYSTEM    = UTC
MEAN_ELEMENT_THEORY = SGP/SGP4

EPOCH          = 2026-03-28T12:06:20.871936
MEAN_MOTION    = 14.83585981
ECCENTRICITY   = .00185942
INCLINATION    = 82.4996
RA_OF_ASC_NODE = 249.7102
ARG_OF_PERICENTER = 235.4938
MEAN_ANOMALY   = 124.4522

EPHEMERIS_TYPE = 0
CLASSIFICATION_TYPE = U
NORAD_CAT_ID   = 20466
ELEMENT_SET_NO = 999
REV_AT_EPOCH   = 93127
BSTAR          = .62060211E-4
MEAN_MOTION_DOT = .536E-5
MEAN_MOTION_DDOT = 0

CCSDS_OMM_VERS = 2.0
CREATION_DATE  = 
ORIGINATOR     = 

OBJECT_NAME    = SL-14 R/B
OBJECT_ID      = 1990-018B
CENTER_NAME    = EARTH
REF_FRAME      = TEME
TIME_SYSTEM    = UTC
MEAN_ELEMENT_THEORY = SGP/SGP4

EPOCH          = 2026-03-28T14:35:13.704000
MEAN_MOTION    = 14.82163341
ECCENTRICITY   = .001696
INCLINATION    = 82.5237
RA_OF_ASC_NODE = 205.4106
ARG_OF_PERICENTER = 34.2487
MEAN_ANOMALY   = 325.9817

EPHEMERIS_TYPE = 0
CLASSIFICATION_TYPE = U
NORAD_CAT_ID   = 20511
ELEMENT_SET_NO = 999
REV_AT_EPOCH   = 92538
BSTAR          = .56566333E-4
MEAN_MOTION_DOT = .475E-5
MEAN_MOTION_DDOT = 0

CCSDS_OMM_VERS = 2.0
CREATION_DATE  = 
ORIGINATOR     = 

OBJECT_NAME    = HST
OBJECT_ID      = 1990-037B
CENTER_NAME    = EARTH
REF_FRAME      = TEME
TIME_SYSTEM    = UTC
MEAN_ELEMENT_THEORY = SGP/SGP4

EPOCH          = 2026-03-28T14:27:30.731328
MEAN_MOTION    = 15.29770791
ECCENTRICITY   = .00016798
INCLINATION    = 28.4720
RA_OF_ASC_NODE = 270.9560
ARG_OF_PERICENTER = 347.9689
MEAN_ANOMALY   = 12.0867

EPHEMERIS_TYPE = 0
CLASSIFICATION_TYPE = U
NORAD_CAT_ID   = 20580
ELEMENT_SET_NO = 999
REV_AT_EPOCH   = 77621
BSTAR          = .29759061E-3
MEAN_MOTION_DOT = .9067E-4
MEAN_MOTION_DDOT = 0

CCSDS_OMM_VERS = 2.0
CREATION_DATE  = 
ORIGINATOR     = 

OBJECT_NAME    = SL-16 R/B
OBJECT_ID      = 1990-046B
CENTER_NAME    = EARTH
REF_FRAME      = TEME
TIME_SYSTEM    = UTC
MEAN_ELEMENT_THEORY = SGP/SGP4

EPOCH          = 2026-03-28T13:43:33.189024
MEAN_MOTION    = 14.15016132
ECCENTRICITY   = .00163291
INCLINATION    = 70.9976
RA_OF_ASC_NODE = 258.2537
ARG_OF_PERICENTER = 274.8301
MEAN_ANOMALY   = 85.0957

EPHEMERIS_TYPE = 0
CLASSIFICATION_TYPE = U
NORAD_CAT_ID   = 20625
ELEMENT_SET_NO = 999
REV_AT_EPOCH   = 85106
BSTAR          = .15581182E-3
MEAN_MOTION_DOT = .254E-5
MEAN_MOTION_DDOT = 0

CCSDS_OMM_VERS = 2.0
CREATION_DATE  = 
ORIGINATOR     = 

OBJECT_NAME    = COSMOS 2084
OBJECT_ID      = 1990-055A
CENTER_NAME    = EARTH
REF_FRAME      = TEME
TIME_SYSTEM    = UTC
MEAN_ELEMENT_THEORY = SGP/SGP4

EPOCH          = 2026-03-28T13:59:33.347904
MEAN_MOTION    = 15.05752483
ECCENTRICITY   = .00140992
INCLINATION    = 62.7892
RA_OF_ASC_NODE = 271.1329
ARG_OF_PERICENTER = 195.8880
MEAN_ANOMALY   = 164.1781

EPHEMERIS_TYPE = 0
CLASSIFICATION_TYPE = U
NORAD_CAT_ID   = 20663
ELEMENT_SET_NO = 999
REV_AT_EPOCH   = 93916
BSTAR          = .21888595E-3
MEAN_MOTION_DOT = .2989E-4
MEAN_MOTION_DDOT = 0

CCSDS_OMM_VERS = 2.0
CREATION_DATE  = 
ORIGINATOR     = 

OBJECT_NAME    = SL-6 R/B(2)
OBJECT_ID      = 1990-055D
CENTER_NAME    = EARTH
REF_FRAME      = TEME
TIME_SYSTEM    = UTC
MEAN_ELEMENT_THEORY = SGP/SGP4

EPOCH          = 2026-03-28T14:11:51.857088
MEAN_MOTION    = 15.03683860
ECCENTRICITY   = .00278919
INCLINATION    = 62.7832
RA_OF_ASC_NODE = 189.5670
ARG_OF_PERICENTER = 351.2955
MEAN_ANOMALY   = 8.7656

EPHEMERIS_TYPE = 0
CLASSIFICATION_TYPE = U
NORAD_CAT_ID   = 20666
ELEMENT_SET_NO = 999
REV_AT_EPOCH   = 94103
BSTAR          = .16352722E-3
MEAN_MOTION_DOT = .2067E-4
MEAN_MOTION_DDOT = 0

CCSDS_OMM_VERS = 2.0
CREATION_DATE  = 
ORIGINATOR     = 

OBJECT_NAME    = SL-8 R/B
OBJECT_ID      = 1990-078B
CENTER_NAME    = EARTH
REF_FRAME      = TEME
TIME_SYSTEM    = UTC
MEAN_ELEMENT_THEORY = SGP/SGP4

EPOCH          = 2026-03-28T10:53:40.925760
MEAN_MOTION    = 14.89622994
ECCENTRICITY   = .0358517
INCLINATION    = 82.9020
RA_OF_ASC_NODE = 234.4248
ARG_OF_PERICENTER = 310.7252
MEAN_ANOMALY   = 46.3331

EPHEMERIS_TYPE = 0
CLASSIFICATION_TYPE = U
NORAD_CAT_ID   = 20775
ELEMENT_SET_NO = 999
REV_AT_EPOCH   = 81209
BSTAR          = .3921E-3
MEAN_MOTION_DOT = .13235E-3
MEAN_MOTION_DDOT = 0

CCSDS_OMM_VERS = 2.0
CREATION_DATE  = 
ORIGINATOR     = 

OBJECT_NAME    = SL-8 R/B
OBJECT_ID      = 1991-006B
CENTER_NAME    = EARTH
REF_FRAME      = TEME
TIME_SYSTEM    = UTC
MEAN_ELEMENT_THEORY = SGP/SGP4

EPOCH          = 2026-03-28T14:12:42.952320
MEAN_MOTION    = 13.77497081
ECCENTRICITY   = .00218572
INCLINATION    = 82.9446
RA_OF_ASC_NODE = 155.9928
ARG_OF_PERICENTER = 345.8356
MEAN_ANOMALY   = 123.3110

EPHEMERIS_TYPE = 0
CLASSIFICATION_TYPE = U
NORAD_CAT_ID   = 21088
ELEMENT_SET_NO = 999
REV_AT_EPOCH   = 76667
BSTAR          = .73984541E-4
MEAN_MOTION_DOT = .89E-6
MEAN_MOTION_DDOT = 0

CCSDS_OMM_VERS = 2.0
CREATION_DATE  = 
ORIGINATOR     = 

OBJECT_NAME    = OKEAN-3
OBJECT_ID      = 1991-039A
CENTER_NAME    = EARTH
REF_FRAME      = TEME
TIME_SYSTEM    = UTC
MEAN_ELEMENT_THEORY = SGP/SGP4

EPOCH          = 2026-03-28T15:06:27.789984
MEAN_MOTION    = 15.04912536
ECCENTRICITY   = .00123367
INCLINATION    = 82.5163
RA_OF_ASC_NODE = 318.4928
ARG_OF_PERICENTER = 266.7407
MEAN_ANOMALY   = 93.2408

EPHEMERIS_TYPE = 0
CLASSIFICATION_TYPE = U
NORAD_CAT_ID   = 21397
ELEMENT_SET_NO = 999
REV_AT_EPOCH   = 86788
BSTAR          = .17302475E-3
MEAN_MOTION_DOT = .2479E-4
MEAN_MOTION_DDOT = 0

CCSDS_OMM_VERS = 2.0
CREATION_DATE  = 
ORIGINATOR     = 

OBJECT_NAME    = COSMOS 2151
OBJECT_ID      = 1991-042A
CENTER_NAME    = EARTH
REF_FRAME      = TEME
TIME_SYSTEM    = UTC
MEAN_ELEMENT_THEORY = SGP/SGP4

EPOCH          = 2026-03-28T11:50:21.992640
MEAN_MOTION    = 15.00184498
ECCENTRICITY   = .00124251
INCLINATION    = 82.4945
RA_OF_ASC_NODE = 65.5318
ARG_OF_PERICENTER = 4.3726
MEAN_ANOMALY   = 355.7604

EPHEMERIS_TYPE = 0
CLASSIFICATION_TYPE = U
NORAD_CAT_ID   = 21422
ELEMENT_SET_NO = 999
REV_AT_EPOCH   = 86601
BSTAR          = .20613021E-3
MEAN_MOTION_DOT = .2605E-4
MEAN_MOTION_DDOT = 0

CCSDS_OMM_VERS = 2.0
CREATION_DATE  = 
ORIGINATOR     = 

OBJECT_NAME    = SL-14 R/B
OBJECT_ID      = 1991-042B
CENTER_NAME    = EARTH
REF_FRAME      = TEME
TIME_SYSTEM    = UTC
MEAN_ELEMENT_THEORY = SGP/SGP4

EPOCH          = 2026-03-28T14:20:09.659328
MEAN_MOTION    = 14.81848352
ECCENTRICITY   = .00171989
INCLINATION    = 82.4956
RA_OF_ASC_NODE = 202.4558
ARG_OF_PERICENTER = 174.1402
MEAN_ANOMALY   = 186.0017

EPHEMERIS_TYPE = 0
CLASSIFICATION_TYPE = U
NORAD_CAT_ID   = 21423
ELEMENT_SET_NO = 999
REV_AT_EPOCH   = 85587
BSTAR          = .60686078E-4
MEAN_MOTION_DOT = .504E-5
MEAN_MOTION_DDOT = 0

